{
"type": "FeatureCollection",
"name": "CORRETO_canakkale01",
"features": [
{ "type": "Feature", "properties": { "fid": 1, "id": null, "area1": null, "area_ha": 3276.881, "perimetro": 52347.96, "area": 33119810.768146072, "area_haNew": 3311.9810768146071 }, "geometry": { "type": "MultiPolygon", "coordinates": [ [ [ [ 26.5152998, 40.1289898 ], [ 26.5173598, 40.1317891 ], [ 26.5185, 40.1320483 ], [ 26.5185231, 40.1320569 ], [ 26.5185414, 40.1320707 ], [ 26.5194994, 40.1330819 ], [ 26.5195021, 40.1330849 ], [ 26.5202669, 40.1340027 ], [ 26.5219839, 40.1335482 ], [ 26.5223961, 40.1327753 ], [ 26.5224089, 40.1327591 ], [ 26.5224276, 40.1327468 ], [ 26.5224503, 40.1327394 ], [ 26.5224749, 40.1327378 ], [ 26.5234268, 40.1327907 ], [ 26.5259754, 40.1326314 ], [ 26.5260012, 40.1326331 ], [ 26.5281833, 40.1330589 ], [ 26.5282075, 40.1330671 ], [ 26.5282268, 40.1330811 ], [ 26.528239, 40.1330992 ], [ 26.5282427, 40.1331193 ], [ 26.5282375, 40.1331393 ], [ 26.5277053, 40.1342037 ], [ 26.527693, 40.1342201 ], [ 26.5276747, 40.1342327 ], [ 26.5261099, 40.1350151 ], [ 26.5260681, 40.1353498 ], [ 26.5280626, 40.1354521 ], [ 26.5280869, 40.1354563 ], [ 26.5303042, 40.1361426 ], [ 26.5324138, 40.1359844 ], [ 26.5324385, 40.1359856 ], [ 26.5324616, 40.1359925 ], [ 26.534677, 40.1369948 ], [ 26.5366765, 40.1369422 ], [ 26.5367003, 40.1369443 ], [ 26.5367222, 40.1369519 ], [ 26.5367401, 40.1369642 ], [ 26.5367524, 40.13698 ], [ 26.5372805, 40.1379836 ], [ 26.5381678, 40.1388708 ], [ 26.5398015, 40.1395032 ], [ 26.5398178, 40.1395116 ], [ 26.5410951, 40.1403631 ], [ 26.5410996, 40.1403664 ], [ 26.5423199, 40.1413214 ], [ 26.5434864, 40.1420107 ], [ 26.5435029, 40.142024 ], [ 26.5435135, 40.1420405 ], [ 26.5435172, 40.1420587 ], [ 26.5435172, 40.1427734 ], [ 26.5442119, 40.1431703 ], [ 26.5451939, 40.143222 ], [ 26.547636, 40.1430627 ], [ 26.5476605, 40.1430641 ], [ 26.5476833, 40.1430712 ], [ 26.5477022, 40.1430833 ], [ 26.5477153, 40.1430993 ], [ 26.5477213, 40.1431176 ], [ 26.547881, 40.1444481 ], [ 26.5478809, 40.1444597 ], [ 26.5477309, 40.1456094 ], [ 26.5482728, 40.1455643 ], [ 26.5482941, 40.1455647 ], [ 26.5483145, 40.1455695 ], [ 26.5499643, 40.1461549 ], [ 26.5499835, 40.1461646 ], [ 26.5499983, 40.146178 ], [ 26.5500074, 40.1461942 ], [ 26.5500101, 40.1462116 ], [ 26.5499581, 40.1476158 ], [ 26.551626, 40.1485018 ], [ 26.551635, 40.1485074 ], [ 26.5533166, 40.1497161 ], [ 26.5549924, 40.1497669 ], [ 26.5555547, 40.1488979 ], [ 26.5561398, 40.1479405 ], [ 26.5561537, 40.1479248 ], [ 26.5561733, 40.1479131 ], [ 26.5561967, 40.1479067 ], [ 26.5562215, 40.1479061 ], [ 26.5562452, 40.1479115 ], [ 26.5584273, 40.1487098 ], [ 26.5584493, 40.1487218 ], [ 26.5584647, 40.1487387 ], [ 26.5584719, 40.1487586 ], [ 26.5586837, 40.1503999 ], [ 26.5592862, 40.1515548 ], [ 26.5605932, 40.1510521 ], [ 26.5606144, 40.1510467 ], [ 26.5606367, 40.151046 ], [ 26.5606583, 40.1510501 ], [ 26.5606776, 40.1510587 ], [ 26.5621678, 40.1519635 ], [ 26.5621848, 40.1519778 ], [ 26.5621951, 40.1519955 ], [ 26.5627233, 40.1535272 ], [ 26.5640442, 40.1548481 ], [ 26.5640563, 40.1548655 ], [ 26.5640605, 40.1548849 ], [ 26.5640563, 40.1549044 ], [ 26.5640442, 40.1549218 ], [ 26.5640255, 40.1549353 ], [ 26.5640021, 40.1549434 ], [ 26.5625212, 40.1552498 ], [ 26.56262, 40.1563861 ], [ 26.5637978, 40.1567446 ], [ 26.5638144, 40.1567515 ], [ 26.5638284, 40.1567613 ], [ 26.5652654, 40.1580386 ], [ 26.5652804, 40.1580588 ], [ 26.5652844, 40.1580818 ], [ 26.565178, 40.1594655 ], [ 26.5651753, 40.1594781 ], [ 26.5646963, 40.1608086 ], [ 26.5646877, 40.1608239 ], [ 26.5646739, 40.1608369 ], [ 26.5646561, 40.1608464 ], [ 26.5635233, 40.1612897 ], [ 26.5641808, 40.1618532 ], [ 26.5661214, 40.162063 ], [ 26.5661467, 40.1620692 ], [ 26.5661678, 40.1620815 ], [ 26.5661825, 40.1620984 ], [ 26.566768, 40.1631096 ], [ 26.566774, 40.163126 ], [ 26.5667739, 40.163143 ], [ 26.5665097, 40.1645171 ], [ 26.5667736, 40.1656784 ], [ 26.5667743, 40.1656951 ], [ 26.5666287, 40.1667627 ], [ 26.567782, 40.1663783 ], [ 26.5678116, 40.1663733 ], [ 26.5678415, 40.1663773 ], [ 26.5691188, 40.1667498 ], [ 26.5691363, 40.166757 ], [ 26.569151, 40.1667673 ], [ 26.5702686, 40.1677785 ], [ 26.5702806, 40.1677932 ], [ 26.5702867, 40.16781 ], [ 26.5702863, 40.1678274 ], [ 26.5702795, 40.167844 ], [ 26.5702668, 40.1678584 ], [ 26.5692559, 40.1687097 ], [ 26.5684766, 40.169385 ], [ 26.5684246, 40.1703747 ], [ 26.5684215, 40.170389 ], [ 26.5681022, 40.1712405 ], [ 26.5680988, 40.1712478 ], [ 26.567642, 40.1720599 ], [ 26.5688782, 40.1729356 ], [ 26.568892, 40.1729484 ], [ 26.5689006, 40.1729636 ], [ 26.5689036, 40.1729801 ], [ 26.5689036, 40.1739913 ], [ 26.5688982, 40.1740133 ], [ 26.5688827, 40.1740323 ], [ 26.5682948, 40.1745223 ], [ 26.5689876, 40.1750666 ], [ 26.5690033, 40.1750844 ], [ 26.5690099, 40.1751053 ], [ 26.5690066, 40.1751267 ], [ 26.5686873, 40.175925 ], [ 26.5686761, 40.1759424 ], [ 26.5680399, 40.1766275 ], [ 26.5691726, 40.1770215 ], [ 26.5706586, 40.177393 ], [ 26.5706792, 40.1774009 ], [ 26.570696, 40.177413 ], [ 26.5707076, 40.1774283 ], [ 26.5715059, 40.1789717 ], [ 26.5715113, 40.1789905 ], [ 26.5715088, 40.1790096 ], [ 26.5714986, 40.1790271 ], [ 26.5714818, 40.1790414 ], [ 26.5714599, 40.1790508 ], [ 26.5714354, 40.1790546 ], [ 26.5714105, 40.1790522 ], [ 26.5705043, 40.1788509 ], [ 26.5699832, 40.179372 ], [ 26.57065, 40.1802952 ], [ 26.5706501, 40.1802953 ], [ 26.5715799, 40.1815868 ], [ 26.5725342, 40.1814361 ], [ 26.572558, 40.1814352 ], [ 26.5725812, 40.1814397 ], [ 26.5726015, 40.1814494 ], [ 26.572617, 40.1814633 ], [ 26.5726265, 40.1814801 ], [ 26.572629, 40.1814983 ], [ 26.5726243, 40.1815163 ], [ 26.5720629, 40.18269 ], [ 26.5732246, 40.1831445 ], [ 26.5732453, 40.1831562 ], [ 26.57326, 40.1831724 ], [ 26.5732672, 40.1831913 ], [ 26.5735333, 40.1848944 ], [ 26.5735314, 40.1849166 ], [ 26.5735191, 40.1849368 ], [ 26.5727838, 40.1857246 ], [ 26.5725402, 40.1866505 ], [ 26.5735613, 40.1866505 ], [ 26.5735866, 40.1866537 ], [ 26.5736092, 40.1866629 ], [ 26.5736268, 40.1866772 ], [ 26.5747976, 40.1880077 ], [ 26.574808, 40.1880248 ], [ 26.5748111, 40.1880434 ], [ 26.5748066, 40.1880619 ], [ 26.5747948, 40.1880785 ], [ 26.5739094, 40.1889639 ], [ 26.5740636, 40.1900433 ], [ 26.5748401, 40.1909752 ], [ 26.575933, 40.1913915 ], [ 26.5774177, 40.1917627 ], [ 26.5774354, 40.1917691 ], [ 26.5774506, 40.1917786 ], [ 26.5785544, 40.1926722 ], [ 26.5793124, 40.1928617 ], [ 26.57966, 40.1920671 ], [ 26.5796685, 40.1920536 ], [ 26.5796811, 40.1920421 ], [ 26.5804262, 40.1915099 ], [ 26.5804465, 40.1914993 ], [ 26.58047, 40.1914941 ], [ 26.5804945, 40.1914946 ], [ 26.58192, 40.1916983 ], [ 26.5823754, 40.1907874 ], [ 26.582389, 40.1907699 ], [ 26.5824094, 40.1907568 ], [ 26.5824344, 40.1907496 ], [ 26.582461, 40.1907492 ], [ 26.5838354, 40.1909078 ], [ 26.5853617, 40.190806 ], [ 26.5856178, 40.1896283 ], [ 26.5856264, 40.1896092 ], [ 26.5856426, 40.1895933 ], [ 26.5856648, 40.1895825 ], [ 26.5856904, 40.1895778 ], [ 26.5857166, 40.1895798 ], [ 26.5866935, 40.1897855 ], [ 26.5875375, 40.1893635 ], [ 26.5862803, 40.1884583 ], [ 26.5862644, 40.1884423 ], [ 26.5862562, 40.1884231 ], [ 26.5862567, 40.1884029 ], [ 26.5862658, 40.188384 ], [ 26.5862825, 40.1883684 ], [ 26.5872405, 40.1877298 ], [ 26.5872603, 40.1877201 ], [ 26.5872829, 40.1877154 ], [ 26.5873063, 40.1877159 ], [ 26.5888497, 40.1879288 ], [ 26.5888736, 40.1879352 ], [ 26.5888935, 40.1879471 ], [ 26.5897193, 40.1886272 ], [ 26.5899295, 40.1882908 ], [ 26.5901942, 40.1864384 ], [ 26.5902024, 40.1864174 ], [ 26.5902198, 40.1864 ], [ 26.5902442, 40.1863885 ], [ 26.5916812, 40.1859627 ], [ 26.5917029, 40.1859588 ], [ 26.5917252, 40.1859598 ], [ 26.5917463, 40.1859655 ], [ 26.5917644, 40.1859755 ], [ 26.5917781, 40.185989 ], [ 26.5930111, 40.1876329 ], [ 26.5936849, 40.1872479 ], [ 26.5937072, 40.187239 ], [ 26.593732, 40.1872359 ], [ 26.5947432, 40.1872359 ], [ 26.5947642, 40.1872381 ], [ 26.5947837, 40.1872445 ], [ 26.5948003, 40.1872546 ], [ 26.5958414, 40.1880875 ], [ 26.5962964, 40.1880875 ], [ 26.5972844, 40.1868915 ], [ 26.5973018, 40.1868766 ], [ 26.5973246, 40.1868669 ], [ 26.5973504, 40.1868634 ], [ 26.5973762, 40.1868665 ], [ 26.5973993, 40.186876 ], [ 26.597417, 40.1868907 ], [ 26.5974276, 40.186909 ], [ 26.5974298, 40.186929 ], [ 26.5972182, 40.1888861 ], [ 26.5976215, 40.1898438 ], [ 26.5987348, 40.1898438 ], [ 26.5987636, 40.1898479 ], [ 26.599828, 40.1901672 ], [ 26.5998534, 40.1901796 ], [ 26.599871, 40.1901983 ], [ 26.6004928, 40.1912348 ], [ 26.6011121, 40.19133 ], [ 26.6024389, 40.1906156 ], [ 26.6025947, 40.1895252 ], [ 26.6026005, 40.189508 ], [ 26.6026127, 40.1894928 ], [ 26.60263, 40.189481 ], [ 26.6031622, 40.1892149 ], [ 26.603185, 40.1892072 ], [ 26.6032097, 40.1892052 ], [ 26.603234, 40.1892092 ], [ 26.6032555, 40.1892189 ], [ 26.603272, 40.1892332 ], [ 26.6032819, 40.1892507 ], [ 26.6041308, 40.1917974 ], [ 26.60519, 40.1932273 ], [ 26.6051947, 40.1932348 ], [ 26.6058333, 40.1944588 ], [ 26.6058389, 40.1944779 ], [ 26.6059442, 40.1959005 ], [ 26.6068929, 40.1971654 ], [ 26.6069022, 40.1971852 ], [ 26.6071683, 40.1983561 ], [ 26.607169, 40.1983736 ], [ 26.607163, 40.1983905 ], [ 26.607151, 40.1984054 ], [ 26.607134, 40.1984171 ], [ 26.6071133, 40.1984245 ], [ 26.6058056, 40.1987263 ], [ 26.6062081, 40.1997325 ], [ 26.6062115, 40.1997529 ], [ 26.6062057, 40.199773 ], [ 26.6061916, 40.1997905 ], [ 26.6061706, 40.1998033 ], [ 26.605203, 40.2002107 ], [ 26.6053032, 40.201563 ], [ 26.6062549, 40.2017133 ], [ 26.6062754, 40.2017189 ], [ 26.6062931, 40.2017285 ], [ 26.6063067, 40.2017415 ], [ 26.6063152, 40.2017568 ], [ 26.6066337, 40.2026591 ], [ 26.6071116, 40.2036679 ], [ 26.6071159, 40.2036947 ], [ 26.6070094, 40.204493 ], [ 26.607004, 40.2045098 ], [ 26.6069925, 40.2045247 ], [ 26.6057208, 40.2057435 ], [ 26.605086, 40.2067486 ], [ 26.6050676, 40.2067673 ], [ 26.603372, 40.207933 ], [ 26.6023131, 40.2091507 ], [ 26.6022955, 40.2091651 ], [ 26.6022728, 40.2091745 ], [ 26.6022474, 40.2091777 ], [ 26.5996396, 40.2091777 ], [ 26.5996176, 40.2091753 ], [ 26.5995973, 40.2091683 ], [ 26.5995804, 40.2091572 ], [ 26.5988026, 40.2084831 ], [ 26.5981924, 40.2084362 ], [ 26.5975792, 40.2092537 ], [ 26.5975637, 40.2092685 ], [ 26.5975431, 40.2092788 ], [ 26.5975193, 40.2092838 ], [ 26.596242, 40.2093902 ], [ 26.5962179, 40.2093894 ], [ 26.5961953, 40.209383 ], [ 26.5948309, 40.2088058 ], [ 26.593274, 40.2088577 ], [ 26.591693, 40.2094901 ], [ 26.5900963, 40.2101288 ], [ 26.5900724, 40.2101349 ], [ 26.5900471, 40.2101349 ], [ 26.5900232, 40.2101288 ], [ 26.590003, 40.2101172 ], [ 26.5899885, 40.2101013 ], [ 26.5895204, 40.2093522 ], [ 26.5890868, 40.2099158 ], [ 26.5898622, 40.2109496 ], [ 26.5898705, 40.2109657 ], [ 26.5898726, 40.2109828 ], [ 26.5898683, 40.2109998 ], [ 26.589858, 40.2110151 ], [ 26.5891207, 40.211805 ], [ 26.588539, 40.2133385 ], [ 26.5885282, 40.213356 ], [ 26.5885106, 40.21337 ], [ 26.5884882, 40.213379 ], [ 26.5884632, 40.2133821 ], [ 26.5848811, 40.2133821 ], [ 26.5842661, 40.2139459 ], [ 26.5842485, 40.2139578 ], [ 26.5842271, 40.2139653 ], [ 26.5842038, 40.2139676 ], [ 26.5841807, 40.2139645 ], [ 26.5841597, 40.2139564 ], [ 26.5841428, 40.2139439 ], [ 26.5834638, 40.2132649 ], [ 26.5823125, 40.2128985 ], [ 26.5822996, 40.2128933 ], [ 26.5812565, 40.2123718 ], [ 26.5798177, 40.2124214 ], [ 26.5798662, 40.2131982 ], [ 26.5810776, 40.2148837 ], [ 26.5821902, 40.2158902 ], [ 26.582203, 40.2159065 ], [ 26.5822087, 40.215925 ], [ 26.5822066, 40.215944 ], [ 26.5816211, 40.2177535 ], [ 26.5816177, 40.2177616 ], [ 26.5810855, 40.2187728 ], [ 26.5810689, 40.2187924 ], [ 26.5810437, 40.2188057 ], [ 26.5800858, 40.219125 ], [ 26.5800631, 40.2191296 ], [ 26.5800396, 40.219129 ], [ 26.5800174, 40.219123 ], [ 26.5799985, 40.2191123 ], [ 26.5791019, 40.2184268 ], [ 26.5770366, 40.2175794 ], [ 26.577018, 40.2175688 ], [ 26.5770042, 40.2175545 ], [ 26.5769964, 40.2175378 ], [ 26.5769953, 40.21752 ], [ 26.5771549, 40.2162959 ], [ 26.5771667, 40.2162696 ], [ 26.5779112, 40.2153656 ], [ 26.5784272, 40.2146947 ], [ 26.578135, 40.2136231 ], [ 26.5773747, 40.2139082 ], [ 26.5773615, 40.2139121 ], [ 26.5761375, 40.2141782 ], [ 26.5761143, 40.2141804 ], [ 26.5760913, 40.2141775 ], [ 26.5760705, 40.2141695 ], [ 26.5760536, 40.2141571 ], [ 26.5760421, 40.2141416 ], [ 26.5757855, 40.2136282 ], [ 26.5743708, 40.2129471 ], [ 26.5743529, 40.2129353 ], [ 26.5743403, 40.2129199 ], [ 26.5743343, 40.2129024 ], [ 26.5743353, 40.2128842 ], [ 26.5743432, 40.2128672 ], [ 26.5747158, 40.2123349 ], [ 26.5747347, 40.2123171 ], [ 26.5747609, 40.212306 ], [ 26.5756752, 40.2120774 ], [ 26.5738273, 40.2119454 ], [ 26.5722911, 40.2120514 ], [ 26.5722865, 40.2120516 ], [ 26.5700512, 40.2121048 ], [ 26.5700411, 40.2121046 ], [ 26.5686042, 40.2119981 ], [ 26.5685775, 40.2119924 ], [ 26.568555, 40.21198 ], [ 26.5685395, 40.2119623 ], [ 26.5685329, 40.2119417 ], [ 26.5684797, 40.211303 ], [ 26.5684796, 40.2113017 ], [ 26.5684288, 40.2103873 ], [ 26.5675253, 40.2101865 ], [ 26.5675037, 40.2101788 ], [ 26.567486, 40.2101665 ], [ 26.567474, 40.2101508 ], [ 26.5674686, 40.210133 ], [ 26.5674703, 40.2101147 ], [ 26.5676109, 40.2096461 ], [ 26.5658855, 40.2094431 ], [ 26.5658634, 40.2094379 ], [ 26.5658442, 40.209428 ], [ 26.5658296, 40.2094142 ], [ 26.5654571, 40.2089353 ], [ 26.5654483, 40.2089188 ], [ 26.565446, 40.2089011 ], [ 26.5654506, 40.2088837 ], [ 26.5654615, 40.2088681 ], [ 26.5654779, 40.2088555 ], [ 26.5654984, 40.2088472 ], [ 26.5655211, 40.2088437 ], [ 26.5668968, 40.2087928 ], [ 26.5670799, 40.2081063 ], [ 26.5657832, 40.2080065 ], [ 26.5657617, 40.2080025 ], [ 26.5657425, 40.2079941 ], [ 26.5657271, 40.2079819 ], [ 26.5657168, 40.2079669 ], [ 26.5652512, 40.206984 ], [ 26.5641747, 40.2067277 ], [ 26.5631673, 40.2065686 ], [ 26.5631604, 40.2065673 ], [ 26.5625388, 40.2064238 ], [ 26.5622458, 40.20701 ], [ 26.562231, 40.2070286 ], [ 26.5622086, 40.207042 ], [ 26.5611441, 40.2074677 ], [ 26.5611173, 40.2074742 ], [ 26.5610893, 40.207473 ], [ 26.5610636, 40.2074643 ], [ 26.5592161, 40.2065142 ], [ 26.5576909, 40.2063564 ], [ 26.5576656, 40.2063504 ], [ 26.5576443, 40.2063382 ], [ 26.5576295, 40.2063213 ], [ 26.5576227, 40.2063017 ], [ 26.5576249, 40.2062814 ], [ 26.557891, 40.2054831 ], [ 26.5579028, 40.2054634 ], [ 26.5579228, 40.2054482 ], [ 26.5579485, 40.2054393 ], [ 26.5590523, 40.2052291 ], [ 26.5598851, 40.2047907 ], [ 26.5586481, 40.2046533 ], [ 26.5586269, 40.2046485 ], [ 26.5586082, 40.2046394 ], [ 26.5585935, 40.2046268 ], [ 26.558584, 40.2046115 ], [ 26.5581051, 40.2034406 ], [ 26.5581018, 40.2034167 ], [ 26.5582615, 40.2021394 ], [ 26.5582669, 40.2021225 ], [ 26.5582783, 40.2021074 ], [ 26.5582948, 40.2020955 ], [ 26.5583151, 40.2020877 ], [ 26.5583375, 40.2020846 ], [ 26.55836, 40.2020865 ], [ 26.5588923, 40.202193 ], [ 26.5589038, 40.202196 ], [ 26.5596171, 40.2024338 ], [ 26.559849, 40.201738 ], [ 26.5587634, 40.2009108 ], [ 26.5587602, 40.2009082 ], [ 26.5584052, 40.200604 ], [ 26.5570473, 40.200395 ], [ 26.557034, 40.2003921 ], [ 26.5554374, 40.1999131 ], [ 26.5554155, 40.1999031 ], [ 26.5553988, 40.1998883 ], [ 26.5553892, 40.1998702 ], [ 26.5549184, 40.1983008 ], [ 26.5544218, 40.1981022 ], [ 26.5528819, 40.1976243 ], [ 26.5528761, 40.1976223 ], [ 26.5521843, 40.1973562 ], [ 26.5521654, 40.1973461 ], [ 26.5521512, 40.1973323 ], [ 26.5515126, 40.1964807 ], [ 26.551503, 40.1964601 ], [ 26.5512401, 40.1951979 ], [ 26.5507039, 40.1946617 ], [ 26.5492699, 40.1951226 ], [ 26.5492538, 40.1951263 ], [ 26.5477636, 40.1953392 ], [ 26.5477373, 40.1953396 ], [ 26.5477124, 40.1953333 ], [ 26.5476915, 40.1953211 ], [ 26.5476769, 40.1953043 ], [ 26.5476704, 40.1952847 ], [ 26.5476726, 40.1952647 ], [ 26.5480451, 40.194147 ], [ 26.548054, 40.1941307 ], [ 26.5480687, 40.1941171 ], [ 26.5480878, 40.1941073 ], [ 26.548641, 40.1939061 ], [ 26.5489215, 40.1931582 ], [ 26.5471105, 40.1931582 ], [ 26.5470885, 40.1931558 ], [ 26.5470682, 40.1931488 ], [ 26.5470513, 40.1931377 ], [ 26.547039, 40.1931235 ], [ 26.5466133, 40.1924316 ], [ 26.5466063, 40.1924132 ], [ 26.5466072, 40.1923942 ], [ 26.5466157, 40.1923762 ], [ 26.5470415, 40.1917908 ], [ 26.54706, 40.1917737 ], [ 26.5470852, 40.1917629 ], [ 26.548408, 40.19142 ], [ 26.547797, 40.190903 ], [ 26.5477837, 40.1908874 ], [ 26.5477771, 40.1908694 ], [ 26.5476707, 40.1901775 ], [ 26.5476721, 40.1901571 ], [ 26.5476823, 40.1901381 ], [ 26.5477002, 40.1901229 ], [ 26.5499672, 40.1887521 ], [ 26.5502194, 40.1879452 ], [ 26.5494475, 40.1869675 ], [ 26.5477069, 40.1861236 ], [ 26.5476882, 40.186111 ], [ 26.5476756, 40.1860945 ], [ 26.5476703, 40.1860758 ], [ 26.5476728, 40.1860568 ], [ 26.547683, 40.1860393 ], [ 26.5476997, 40.1860252 ], [ 26.5483916, 40.1855994 ], [ 26.5483952, 40.1855973 ], [ 26.5495244, 40.1849814 ], [ 26.5492366, 40.1838784 ], [ 26.5480013, 40.1844219 ], [ 26.5479789, 40.1844285 ], [ 26.5479548, 40.1844297 ], [ 26.5479315, 40.1844252 ], [ 26.5464791, 40.1839584 ], [ 26.5450769, 40.1846335 ], [ 26.5450527, 40.1846413 ], [ 26.5450265, 40.1846425 ], [ 26.5450013, 40.1846371 ], [ 26.5449798, 40.1846256 ], [ 26.5449643, 40.1846094 ], [ 26.5439531, 40.183066 ], [ 26.5439453, 40.1830465 ], [ 26.5439465, 40.183026 ], [ 26.5439564, 40.183007 ], [ 26.5439741, 40.1829917 ], [ 26.5439974, 40.1829817 ], [ 26.5440237, 40.1829783 ], [ 26.5465147, 40.1829783 ], [ 26.5448681, 40.1814813 ], [ 26.5448559, 40.1814662 ], [ 26.5448499, 40.181449 ], [ 26.5448507, 40.1814312 ], [ 26.5451329, 40.1802556 ], [ 26.5434863, 40.1812242 ], [ 26.5434646, 40.1812332 ], [ 26.5434403, 40.1812367 ], [ 26.5434158, 40.1812342 ], [ 26.5433935, 40.181226 ], [ 26.5433756, 40.181213 ], [ 26.5433638, 40.1811963 ], [ 26.5433593, 40.1811776 ], [ 26.543307, 40.1796084 ], [ 26.539809, 40.1773634 ], [ 26.5390574, 40.177664 ], [ 26.5390327, 40.1776702 ], [ 26.5390066, 40.1776699 ], [ 26.5389822, 40.1776631 ], [ 26.5366764, 40.1766674 ], [ 26.5353175, 40.1771707 ], [ 26.5351613, 40.1787326 ], [ 26.5351565, 40.1787493 ], [ 26.5351457, 40.1787643 ], [ 26.5351299, 40.1787764 ], [ 26.5351104, 40.1787846 ], [ 26.5350886, 40.1787883 ], [ 26.5341838, 40.1788416 ], [ 26.5341591, 40.17884 ], [ 26.5341363, 40.1788327 ], [ 26.5331251, 40.1783537 ], [ 26.5331179, 40.1783499 ], [ 26.5320535, 40.1777112 ], [ 26.5320357, 40.1776962 ], [ 26.5320253, 40.1776774 ], [ 26.5318238, 40.1770226 ], [ 26.5293708, 40.176605 ], [ 26.5293527, 40.1766001 ], [ 26.5293367, 40.176592 ], [ 26.5281127, 40.1757937 ], [ 26.5280931, 40.1757746 ], [ 26.5274424, 40.1747734 ], [ 26.5256548, 40.1757438 ], [ 26.5256339, 40.1757519 ], [ 26.5256107, 40.1757549 ], [ 26.5255874, 40.1757526 ], [ 26.5255661, 40.1757451 ], [ 26.5244157, 40.1751699 ], [ 26.5214066, 40.1752227 ], [ 26.5213826, 40.1752203 ], [ 26.5213607, 40.1752124 ], [ 26.521343, 40.1751999 ], [ 26.521331, 40.1751838 ], [ 26.5213259, 40.1751657 ], [ 26.5212727, 40.1744738 ], [ 26.521275, 40.1744553 ], [ 26.5212846, 40.1744381 ], [ 26.5213005, 40.174424 ], [ 26.5213213, 40.1744143 ], [ 26.5224692, 40.174049 ], [ 26.5229392, 40.173485 ], [ 26.5212121, 40.1728754 ], [ 26.5211933, 40.1728661 ], [ 26.5202417, 40.1722317 ], [ 26.5182653, 40.1713996 ], [ 26.5170796, 40.1719151 ], [ 26.5170579, 40.1719215 ], [ 26.5170347, 40.1719228 ], [ 26.517012, 40.1719189 ], [ 26.5169918, 40.17191 ], [ 26.5139804, 40.1700928 ], [ 26.5134919, 40.1708256 ], [ 26.5134783, 40.1708402 ], [ 26.5134596, 40.1708511 ], [ 26.5134377, 40.1708573 ], [ 26.5134143, 40.1708583 ], [ 26.511179, 40.1706987 ], [ 26.511153, 40.1706933 ], [ 26.5111309, 40.1706815 ], [ 26.5111153, 40.1706648 ], [ 26.5111078, 40.1706449 ], [ 26.5110014, 40.1698999 ], [ 26.5110027, 40.1698804 ], [ 26.5110121, 40.1698622 ], [ 26.5117435, 40.1689218 ], [ 26.5115869, 40.1678778 ], [ 26.5115879, 40.167859 ], [ 26.5115964, 40.1678413 ], [ 26.5116115, 40.1678265 ], [ 26.5123526, 40.1672971 ], [ 26.5132118, 40.1664885 ], [ 26.5119785, 40.1654094 ], [ 26.5119667, 40.1653957 ], [ 26.5106453, 40.1632815 ], [ 26.5085339, 40.162173 ], [ 26.508522, 40.1621653 ], [ 26.506287, 40.1604093 ], [ 26.5033301, 40.1581388 ], [ 26.5004889, 40.1581388 ], [ 26.5004658, 40.1581361 ], [ 26.5004448, 40.1581284 ], [ 26.5004276, 40.1581163 ], [ 26.5004157, 40.1581009 ], [ 26.4998835, 40.1570897 ], [ 26.4998779, 40.1570702 ], [ 26.4998808, 40.1570503 ], [ 26.499892, 40.1570323 ], [ 26.4999102, 40.157018 ], [ 26.4999335, 40.1570091 ], [ 26.4999593, 40.1570065 ], [ 26.502035, 40.1570597 ], [ 26.5020606, 40.1570637 ], [ 26.5037964, 40.1575742 ], [ 26.5044321, 40.1563027 ], [ 26.5031206, 40.1558991 ], [ 26.5030987, 40.155889 ], [ 26.5030822, 40.1558741 ], [ 26.5030728, 40.1558558 ], [ 26.5030715, 40.1558363 ], [ 26.5030784, 40.1558174 ], [ 26.5030927, 40.1558012 ], [ 26.5031131, 40.1557894 ], [ 26.5031373, 40.1557831 ], [ 26.5051178, 40.1555356 ], [ 26.5047118, 40.1552107 ], [ 26.5027746, 40.1551584 ], [ 26.5027399, 40.1551511 ], [ 26.5012446, 40.1545324 ], [ 26.5000085, 40.1553564 ], [ 26.4999852, 40.1553672 ], [ 26.4999585, 40.1553713 ], [ 26.4999316, 40.1553681 ], [ 26.4999076, 40.1553582 ], [ 26.4986836, 40.1546131 ], [ 26.4986676, 40.1546 ], [ 26.4986573, 40.1545838 ], [ 26.4986537, 40.1545661 ], [ 26.498657, 40.1545483 ], [ 26.4986669, 40.1545321 ], [ 26.4986826, 40.1545187 ], [ 26.4987027, 40.1545096 ], [ 26.5005265, 40.1539364 ], [ 26.5007083, 40.1532545 ], [ 26.4984781, 40.1535079 ], [ 26.4984522, 40.1535075 ], [ 26.4984278, 40.1535008 ], [ 26.4984076, 40.1534883 ], [ 26.4983938, 40.1534715 ], [ 26.4983878, 40.1534522 ], [ 26.4983902, 40.1534324 ], [ 26.4988692, 40.1520487 ], [ 26.4988803, 40.15203 ], [ 26.4988989, 40.1520153 ], [ 26.4989229, 40.1520062 ], [ 26.4989494, 40.1520037 ], [ 26.5017701, 40.1521102 ], [ 26.5017987, 40.1521155 ], [ 26.5018228, 40.1521285 ], [ 26.5028219, 40.1529172 ], [ 26.5046024, 40.1534409 ], [ 26.507516, 40.1534939 ], [ 26.5075389, 40.1534969 ], [ 26.5075596, 40.1535049 ], [ 26.5088157, 40.1541853 ], [ 26.5119297, 40.1541325 ], [ 26.5119523, 40.1541347 ], [ 26.5119733, 40.1541417 ], [ 26.5119907, 40.154153 ], [ 26.5120031, 40.1541677 ], [ 26.5126171, 40.1551911 ], [ 26.5135167, 40.1550911 ], [ 26.513539, 40.1550911 ], [ 26.5135604, 40.1550958 ], [ 26.5135793, 40.1551049 ], [ 26.513594, 40.1551178 ], [ 26.5139133, 40.1554903 ], [ 26.5139238, 40.1555085 ], [ 26.5139261, 40.1555283 ], [ 26.5139199, 40.1555476 ], [ 26.5139059, 40.1555643 ], [ 26.513241, 40.1561268 ], [ 26.513695, 40.1577914 ], [ 26.5158508, 40.1573808 ], [ 26.5158722, 40.157379 ], [ 26.5158934, 40.1573817 ], [ 26.5159129, 40.1573888 ], [ 26.5182405, 40.1585526 ], [ 26.5207877, 40.1588645 ], [ 26.5225492, 40.1572584 ], [ 26.5224967, 40.1555783 ], [ 26.5224997, 40.1555602 ], [ 26.5225096, 40.1555436 ], [ 26.5225255, 40.15553 ], [ 26.522546, 40.1555207 ], [ 26.5225691, 40.1555164 ], [ 26.5225928, 40.1555177 ], [ 26.5243074, 40.1558116 ], [ 26.5240071, 40.1552539 ], [ 26.5201577, 40.1543575 ], [ 26.5201353, 40.1543491 ], [ 26.5201174, 40.1543357 ], [ 26.5201058, 40.1543187 ], [ 26.5195791, 40.1531073 ], [ 26.518154, 40.1519461 ], [ 26.5181395, 40.1519294 ], [ 26.5181329, 40.1519101 ], [ 26.5181348, 40.1518901 ], [ 26.5181452, 40.1518717 ], [ 26.5181628, 40.1518569 ], [ 26.5181857, 40.1518473 ], [ 26.5182115, 40.151844 ], [ 26.5198843, 40.151844 ], [ 26.518822, 40.1513766 ], [ 26.5157554, 40.1509007 ], [ 26.5143796, 40.1509007 ], [ 26.5143494, 40.1508961 ], [ 26.5143238, 40.150883 ], [ 26.5127655, 40.1496883 ], [ 26.5103136, 40.150523 ], [ 26.5102816, 40.1505282 ], [ 26.5082592, 40.1505282 ], [ 26.5082291, 40.1505236 ], [ 26.5082036, 40.1505106 ], [ 26.5071103, 40.1496777 ], [ 26.5054417, 40.1497298 ], [ 26.5054152, 40.1497272 ], [ 26.5053913, 40.1497179 ], [ 26.5053729, 40.149703 ], [ 26.505362, 40.1496843 ], [ 26.5051014, 40.1489026 ], [ 26.5036806, 40.1478501 ], [ 26.5036675, 40.1478375 ], [ 26.5036593, 40.1478226 ], [ 26.5036565, 40.1478066 ], [ 26.5036565, 40.1469501 ], [ 26.501589, 40.1465883 ], [ 26.5015683, 40.1465823 ], [ 26.5015507, 40.146572 ], [ 26.5008588, 40.1460398 ], [ 26.5008457, 40.1460265 ], [ 26.5008379, 40.146011 ], [ 26.5008358, 40.1459945 ], [ 26.5008874, 40.1450657 ], [ 26.5001524, 40.1445757 ], [ 26.498812, 40.1449366 ], [ 26.498788, 40.14494 ], [ 26.4987638, 40.1449376 ], [ 26.4987418, 40.1449297 ], [ 26.4987239, 40.1449169 ], [ 26.494892, 40.1411915 ], [ 26.49488, 40.1411751 ], [ 26.4948751, 40.1411567 ], [ 26.4948778, 40.1411381 ], [ 26.4948877, 40.1411209 ], [ 26.4949041, 40.141107 ], [ 26.4957556, 40.1405748 ], [ 26.495788, 40.1405626 ], [ 26.4970121, 40.1403498 ], [ 26.497036, 40.1403485 ], [ 26.4970593, 40.1403527 ], [ 26.4987212, 40.1408721 ], [ 26.4998031, 40.1402538 ], [ 26.4998268, 40.1402446 ], [ 26.4998531, 40.1402419 ], [ 26.499879, 40.140246 ], [ 26.4999018, 40.1402565 ], [ 26.4999187, 40.1402722 ], [ 26.5010162, 40.1417356 ], [ 26.5042005, 40.1419924 ], [ 26.5043922, 40.1409855 ], [ 26.5029165, 40.1406802 ], [ 26.5028932, 40.1406721 ], [ 26.5028745, 40.1406586 ], [ 26.5028624, 40.1406413 ], [ 26.5028581, 40.1406219 ], [ 26.5028622, 40.1406025 ], [ 26.5028742, 40.1405851 ], [ 26.5028928, 40.1405716 ], [ 26.5029161, 40.1405633 ], [ 26.5064286, 40.1398182 ], [ 26.5064515, 40.1398161 ], [ 26.5064742, 40.139819 ], [ 26.5064948, 40.1398269 ], [ 26.5065115, 40.139839 ], [ 26.5099448, 40.1431667 ], [ 26.5125491, 40.1430135 ], [ 26.512651, 40.1418418 ], [ 26.5126571, 40.1418222 ], [ 26.5126712, 40.1418052 ], [ 26.5137142, 40.1409187 ], [ 26.5136637, 40.1398091 ], [ 26.5115381, 40.1390314 ], [ 26.5088917, 40.1388726 ], [ 26.5088649, 40.1388673 ], [ 26.5088421, 40.1388551 ], [ 26.5079591, 40.1381799 ], [ 26.5062868, 40.1381276 ], [ 26.5062646, 40.1381245 ], [ 26.5062445, 40.1381166 ], [ 26.5062281, 40.1381047 ], [ 26.5062168, 40.1380897 ], [ 26.5056489, 40.1370055 ], [ 26.503886, 40.13685 ], [ 26.5038614, 40.1368446 ], [ 26.5038403, 40.1368335 ], [ 26.503825, 40.1368177 ], [ 26.503817, 40.136799 ], [ 26.5035509, 40.1354685 ], [ 26.5035508, 40.1354506 ], [ 26.5035576, 40.1354334 ], [ 26.5035705, 40.1354186 ], [ 26.5035886, 40.1354072 ], [ 26.5060213, 40.1342966 ], [ 26.5066932, 40.1335214 ], [ 26.5068504, 40.1326304 ], [ 26.5068576, 40.1326121 ], [ 26.5068719, 40.1325965 ], [ 26.5068918, 40.132585 ], [ 26.5069154, 40.1325789 ], [ 26.508119, 40.1324219 ], [ 26.5093754, 40.1316366 ], [ 26.5104889, 40.1306822 ], [ 26.5105098, 40.1306695 ], [ 26.510535, 40.1306628 ], [ 26.5121818, 40.130457 ], [ 26.5124921, 40.1289568 ], [ 26.5124989, 40.1289402 ], [ 26.5125114, 40.1289258 ], [ 26.5125288, 40.1289147 ], [ 26.5125496, 40.1289078 ], [ 26.5125721, 40.1289058 ], [ 26.5152332, 40.128959 ], [ 26.5152596, 40.1289631 ], [ 26.5152828, 40.1289737 ], [ 26.5152998, 40.1289898 ] ] ] ] } }
]
}
