{
"type": "FeatureCollection",
"name": "CORRETOcanakkale02",
"features": [
{ "type": "Feature", "properties": { "fid": 1, "id": null, "canakkale2": null, "area_ha": 4331.142, "perimeter": 54002.897, "area_haNew": 4444.5727494976363, "perimeterNew": 53569.986919186638 }, "geometry": { "type": "MultiPolygon", "coordinates": [ [ [ [ 26.4426093, 40.0609397 ], [ 26.4448181, 40.0610591 ], [ 26.445499, 40.0603215 ], [ 26.4455597, 40.0602753 ], [ 26.4465113, 40.0597677 ], [ 26.446572, 40.0597441 ], [ 26.4466387, 40.0597341 ], [ 26.4467065, 40.0597384 ], [ 26.4467702, 40.0597568 ], [ 26.4475138, 40.0600666 ], [ 26.4483624, 40.0602929 ], [ 26.4491673, 40.060063 ], [ 26.4492303, 40.0600519 ], [ 26.4492949, 40.0600537 ], [ 26.4493567, 40.0600684 ], [ 26.4504004, 40.0604368 ], [ 26.4516947, 40.06056 ], [ 26.4517167, 40.0605629 ], [ 26.4524781, 40.0606898 ], [ 26.4525241, 40.0607012 ], [ 26.4540467, 40.0612087 ], [ 26.454103, 40.0612348 ], [ 26.4541484, 40.0612714 ], [ 26.4551479, 40.0623297 ], [ 26.4565361, 40.0622718 ], [ 26.4566031, 40.0622761 ], [ 26.4566663, 40.0622941 ], [ 26.4577448, 40.0627382 ], [ 26.4577948, 40.0627654 ], [ 26.4578345, 40.0628012 ], [ 26.4584876, 40.0635631 ], [ 26.4591913, 40.063362 ], [ 26.4592681, 40.0633502 ], [ 26.4593458, 40.0633575 ], [ 26.4594167, 40.063383 ], [ 26.4594736, 40.0634243 ], [ 26.4601724, 40.0641232 ], [ 26.4613396, 40.0642399 ], [ 26.4614135, 40.0642566 ], [ 26.4621113, 40.0645103 ], [ 26.4621353, 40.0645203 ], [ 26.4643562, 40.0655723 ], [ 26.4647036, 40.065225 ], [ 26.4653249, 40.0638581 ], [ 26.4653619, 40.0638054 ], [ 26.4654183, 40.0637642 ], [ 26.4654887, 40.0637384 ], [ 26.4655659, 40.0637308 ], [ 26.4656425, 40.0637421 ], [ 26.4667844, 40.0640593 ], [ 26.4668535, 40.0640888 ], [ 26.466907, 40.0641335 ], [ 26.4669393, 40.064189 ], [ 26.4669472, 40.0642494 ], [ 26.4669299, 40.0643087 ], [ 26.4662192, 40.0656709 ], [ 26.4670913, 40.0666012 ], [ 26.4671304, 40.0666655 ], [ 26.467136, 40.0667364 ], [ 26.4670434, 40.0672916 ], [ 26.4689303, 40.0673471 ], [ 26.4690024, 40.0673576 ], [ 26.4690674, 40.0673839 ], [ 26.4691194, 40.0674237 ], [ 26.4691539, 40.0674735 ], [ 26.4695215, 40.0682699 ], [ 26.4700578, 40.0688062 ], [ 26.4723468, 40.0688062 ], [ 26.4724155, 40.0688137 ], [ 26.4741056, 40.0691893 ], [ 26.4758747, 40.0693113 ], [ 26.4772252, 40.0690043 ], [ 26.4772835, 40.0689967 ], [ 26.4789964, 40.0689333 ], [ 26.4790667, 40.0689384 ], [ 26.4791322, 40.0689586 ], [ 26.4791876, 40.0689922 ], [ 26.4792284, 40.0690365 ], [ 26.479736, 40.0697978 ], [ 26.4797444, 40.0698118 ], [ 26.4801774, 40.0706159 ], [ 26.4811248, 40.0716225 ], [ 26.4819297, 40.071795 ], [ 26.4819682, 40.071806 ], [ 26.483517, 40.0723635 ], [ 26.4849986, 40.072487 ], [ 26.4850515, 40.072496 ], [ 26.4865107, 40.0728766 ], [ 26.4865571, 40.072893 ], [ 26.4879529, 40.0735275 ], [ 26.4880235, 40.0735757 ], [ 26.4880654, 40.0736407 ], [ 26.4883826, 40.0745289 ], [ 26.488387, 40.0745434 ], [ 26.4886023, 40.0754043 ], [ 26.4894764, 40.0754043 ], [ 26.4895436, 40.0754114 ], [ 26.4896056, 40.0754323 ], [ 26.4906842, 40.0759398 ], [ 26.4907355, 40.0759719 ], [ 26.4907738, 40.0760133 ], [ 26.4907966, 40.0760611 ], [ 26.4910503, 40.0769493 ], [ 26.4910544, 40.0770123 ], [ 26.4908012, 40.078658 ], [ 26.4906814, 40.0798558 ], [ 26.4917442, 40.0810367 ], [ 26.4930327, 40.0816502 ], [ 26.4930877, 40.0816859 ], [ 26.493127, 40.0817322 ], [ 26.4935077, 40.0823666 ], [ 26.4935213, 40.082395 ], [ 26.4940288, 40.0837908 ], [ 26.4940376, 40.0838518 ], [ 26.4940206, 40.0839117 ], [ 26.4939797, 40.0839644 ], [ 26.493919, 40.0840043 ], [ 26.4930984, 40.0843872 ], [ 26.4932016, 40.0853157 ], [ 26.4940459, 40.0857097 ], [ 26.4940965, 40.0857409 ], [ 26.4941347, 40.0857812 ], [ 26.494158, 40.0858277 ], [ 26.4944752, 40.0868428 ], [ 26.4944819, 40.0868938 ], [ 26.4944197, 40.0882622 ], [ 26.4946469, 40.088944 ], [ 26.4959908, 40.0899214 ], [ 26.4959992, 40.0899277 ], [ 26.4972681, 40.0909428 ], [ 26.4973089, 40.0909865 ], [ 26.4973322, 40.0910372 ], [ 26.4973361, 40.0910909 ], [ 26.4973202, 40.0911433 ], [ 26.4972858, 40.0911901 ], [ 26.4969978, 40.0914782 ], [ 26.4975664, 40.0923879 ], [ 26.4975831, 40.092423 ], [ 26.4978196, 40.0931328 ], [ 26.4987851, 40.0938569 ], [ 26.4988394, 40.0939174 ], [ 26.4994104, 40.0949325 ], [ 26.4994303, 40.0949977 ], [ 26.4994195, 40.0950642 ], [ 26.4993795, 40.0951236 ], [ 26.498869, 40.095634 ], [ 26.4989662, 40.0963146 ], [ 26.5001017, 40.0965308 ], [ 26.5007409, 40.0965308 ], [ 26.5024897, 40.0962186 ], [ 26.5025661, 40.0962143 ], [ 26.5026406, 40.0962282 ], [ 26.502706, 40.0962589 ], [ 26.502756, 40.0963035 ], [ 26.5027858, 40.0963577 ], [ 26.5027926, 40.0964163 ], [ 26.5026833, 40.0976728 ], [ 26.5036243, 40.0976728 ], [ 26.5037032, 40.0976828 ], [ 26.5037739, 40.0977115 ], [ 26.5045352, 40.0981556 ], [ 26.5045835, 40.0981929 ], [ 26.5046166, 40.0982388 ], [ 26.5049242, 40.0988541 ], [ 26.5052168, 40.0991955 ], [ 26.5062889, 40.0991955 ], [ 26.5063718, 40.0992064 ], [ 26.5064451, 40.0992381 ], [ 26.5069037, 40.0995247 ], [ 26.508174, 40.0997062 ], [ 26.5082437, 40.0997248 ], [ 26.5083031, 40.0997583 ], [ 26.5083471, 40.0998037 ], [ 26.5083717, 40.0998571 ], [ 26.5083747, 40.0999137 ], [ 26.5082047, 40.1011034 ], [ 26.5090125, 40.1013558 ], [ 26.5108155, 40.1014802 ], [ 26.5108581, 40.101486 ], [ 26.5123808, 40.1018033 ], [ 26.512442, 40.1018231 ], [ 26.5131399, 40.1021403 ], [ 26.5132045, 40.1021828 ], [ 26.5132467, 40.1022395 ], [ 26.5132613, 40.1023038 ], [ 26.5132613, 40.1037053 ], [ 26.5140064, 40.1039714 ], [ 26.5140666, 40.1040018 ], [ 26.5141129, 40.1040442 ], [ 26.5148582, 40.1049759 ], [ 26.5163589, 40.1061014 ], [ 26.5163969, 40.1061379 ], [ 26.5164221, 40.1061804 ], [ 26.5169931, 40.1075761 ], [ 26.5170041, 40.1076434 ], [ 26.5169836, 40.1077094 ], [ 26.516476, 40.1085976 ], [ 26.5164358, 40.1086463 ], [ 26.5163783, 40.1086835 ], [ 26.516309, 40.1087057 ], [ 26.5151785, 40.108921 ], [ 26.515214, 40.1093123 ], [ 26.5173086, 40.1096032 ], [ 26.5173789, 40.1096216 ], [ 26.5174388, 40.1096553 ], [ 26.5187711, 40.1106704 ], [ 26.5188108, 40.1107098 ], [ 26.5188358, 40.1107558 ], [ 26.5188443, 40.1108052 ], [ 26.5188443, 40.1115665 ], [ 26.5188343, 40.11162 ], [ 26.5188052, 40.1116691 ], [ 26.5187592, 40.1117099 ], [ 26.5187002, 40.1117392 ], [ 26.5178325, 40.1120454 ], [ 26.5179337, 40.1122479 ], [ 26.5190739, 40.1121393 ], [ 26.5191433, 40.1121402 ], [ 26.5192096, 40.1121559 ], [ 26.5192676, 40.1121851 ], [ 26.5193128, 40.1122255 ], [ 26.5199473, 40.1129868 ], [ 26.519974, 40.11303 ], [ 26.5199858, 40.113077 ], [ 26.5201127, 40.1145997 ], [ 26.5201029, 40.1146659 ], [ 26.520064, 40.1147254 ], [ 26.5200008, 40.114771 ], [ 26.5192688, 40.115137 ], [ 26.5187489, 40.1155991 ], [ 26.5184746, 40.1161478 ], [ 26.5186526, 40.1167263 ], [ 26.5187248, 40.1167119 ], [ 26.5188004, 40.116706 ], [ 26.5188748, 40.1167181 ], [ 26.5189409, 40.1167469 ], [ 26.5204001, 40.1176351 ], [ 26.5204457, 40.1176714 ], [ 26.5204773, 40.1177156 ], [ 26.5204926, 40.1177646 ], [ 26.5206195, 40.1187163 ], [ 26.5206182, 40.1187628 ], [ 26.5206023, 40.1188076 ], [ 26.5201179, 40.1197158 ], [ 26.5202988, 40.1211628 ], [ 26.5209497, 40.1223462 ], [ 26.5220199, 40.1228219 ], [ 26.522072, 40.1228528 ], [ 26.5234545, 40.1239281 ], [ 26.5236196, 40.1232677 ], [ 26.5236388, 40.1232224 ], [ 26.5241424, 40.122404 ], [ 26.5245832, 40.1215225 ], [ 26.5246199, 40.1214729 ], [ 26.5246741, 40.121434 ], [ 26.5247409, 40.1214091 ], [ 26.5248143, 40.1214006 ], [ 26.5259682, 40.1214006 ], [ 26.5265096, 40.1209084 ], [ 26.5262875, 40.1202419 ], [ 26.5262806, 40.1201787 ], [ 26.5264075, 40.1190367 ], [ 26.5264335, 40.1189667 ], [ 26.5264919, 40.1189094 ], [ 26.5272058, 40.1184334 ], [ 26.5270081, 40.118417 ], [ 26.5269319, 40.1184009 ], [ 26.5268663, 40.1183672 ], [ 26.5268177, 40.1183194 ], [ 26.5267913, 40.1182622 ], [ 26.5264741, 40.1169299 ], [ 26.5264702, 40.1169014 ], [ 26.5264068, 40.1152519 ], [ 26.526417, 40.1151918 ], [ 26.5264514, 40.1151373 ], [ 26.5265063, 40.1150939 ], [ 26.5265763, 40.1150659 ], [ 26.5266541, 40.1150562 ], [ 26.5271476, 40.1150562 ], [ 26.5280039, 40.1145995 ], [ 26.5283099, 40.1142935 ], [ 26.52831, 40.1134698 ], [ 26.52831, 40.1123279 ], [ 26.5283255, 40.1122616 ], [ 26.5283701, 40.1122037 ], [ 26.5289411, 40.1116961 ], [ 26.5289977, 40.111659 ], [ 26.529066, 40.1116365 ], [ 26.5303349, 40.1113827 ], [ 26.5303878, 40.1113767 ], [ 26.5325449, 40.1113132 ], [ 26.5326339, 40.1113232 ], [ 26.5327123, 40.1113569 ], [ 26.53277, 40.1114099 ], [ 26.5334678, 40.1123615 ], [ 26.5334926, 40.1124095 ], [ 26.5334995, 40.1124608 ], [ 26.5334408, 40.1138708 ], [ 26.5352542, 40.1146897 ], [ 26.5356793, 40.1147842 ], [ 26.5367234, 40.1142041 ], [ 26.536786, 40.1141789 ], [ 26.5368552, 40.1141683 ], [ 26.5369256, 40.1141732 ], [ 26.5369913, 40.1141931 ], [ 26.537047, 40.1142265 ], [ 26.5376814, 40.114734 ], [ 26.537739, 40.1148087 ], [ 26.53831, 40.1162044 ], [ 26.5383174, 40.1162276 ], [ 26.5385712, 40.1173061 ], [ 26.5385751, 40.1173399 ], [ 26.5385751, 40.1187602 ], [ 26.5391713, 40.1198333 ], [ 26.5401427, 40.1205888 ], [ 26.5409272, 40.1202228 ], [ 26.5409845, 40.1202032 ], [ 26.5418092, 40.1200129 ], [ 26.541839, 40.1200075 ], [ 26.5432982, 40.1198172 ], [ 26.5433845, 40.1198176 ], [ 26.5434653, 40.1198408 ], [ 26.5435308, 40.1198838 ], [ 26.5444401, 40.1207325 ], [ 26.5456737, 40.1210849 ], [ 26.5474115, 40.121147 ], [ 26.547426, 40.1211478 ], [ 26.5496898, 40.1213314 ], [ 26.5505733, 40.1209156 ], [ 26.5505152, 40.1196942 ], [ 26.5505267, 40.1196296 ], [ 26.550566, 40.1195717 ], [ 26.5506285, 40.1195275 ], [ 26.5507068, 40.1195021 ], [ 26.5507916, 40.1194986 ], [ 26.5521648, 40.1196234 ], [ 26.553411, 40.1195611 ], [ 26.5534846, 40.1195659 ], [ 26.5535531, 40.1195871 ], [ 26.5536103, 40.1196229 ], [ 26.5536512, 40.1196701 ], [ 26.5536722, 40.1197244 ], [ 26.5540004, 40.1215291 ], [ 26.5550096, 40.1210484 ], [ 26.5550415, 40.1210356 ], [ 26.5563738, 40.1205915 ], [ 26.5564531, 40.1205764 ], [ 26.5565344, 40.1205819 ], [ 26.556609, 40.1206074 ], [ 26.5566687, 40.1206501 ], [ 26.5578611, 40.1218425 ], [ 26.5589048, 40.1225792 ], [ 26.5602782, 40.1232035 ], [ 26.5603368, 40.1232405 ], [ 26.560378, 40.1232893 ], [ 26.560398, 40.1233454 ], [ 26.560395, 40.1234036 ], [ 26.5603691, 40.1234583 ], [ 26.5598652, 40.1241639 ], [ 26.5611389, 40.1245884 ], [ 26.5612037, 40.12462 ], [ 26.5612529, 40.1246654 ], [ 26.5612815, 40.1247201 ], [ 26.5616574, 40.1259731 ], [ 26.5623685, 40.1272768 ], [ 26.5640807, 40.1277491 ], [ 26.565323, 40.1278734 ], [ 26.5653915, 40.1278881 ], [ 26.5654517, 40.1279173 ], [ 26.5654986, 40.1279583 ], [ 26.5655284, 40.128008 ], [ 26.5661583, 40.1296456 ], [ 26.5670207, 40.1311405 ], [ 26.5689787, 40.130795 ], [ 26.5690571, 40.130791 ], [ 26.5691333, 40.130806 ], [ 26.5691994, 40.1308387 ], [ 26.5692488, 40.1308856 ], [ 26.5692766, 40.130942 ], [ 26.5695304, 40.1318937 ], [ 26.5695342, 40.1319509 ], [ 26.5695156, 40.1320063 ], [ 26.568564, 40.1337193 ], [ 26.5685244, 40.1337682 ], [ 26.5684675, 40.1338059 ], [ 26.5668814, 40.1345672 ], [ 26.5668063, 40.1345911 ], [ 26.56548, 40.134828 ], [ 26.5662642, 40.1353943 ], [ 26.5677756, 40.1360594 ], [ 26.5688763, 40.1361173 ], [ 26.5694947, 40.1359627 ], [ 26.5698289, 40.1354615 ], [ 26.5698424, 40.1354436 ], [ 26.5706037, 40.1345554 ], [ 26.5706512, 40.1345144 ], [ 26.570712, 40.1344856 ], [ 26.570781, 40.1344712 ], [ 26.5708524, 40.1344726 ], [ 26.5709204, 40.1344896 ], [ 26.5709792, 40.1345208 ], [ 26.5718125, 40.135116 ], [ 26.5722461, 40.1351702 ], [ 26.5723227, 40.13519 ], [ 26.5723868, 40.1352277 ], [ 26.5744805, 40.1369407 ], [ 26.5745346, 40.1370102 ], [ 26.5754228, 40.1390404 ], [ 26.5754356, 40.1390959 ], [ 26.5754266, 40.1391518 ], [ 26.5753967, 40.1392032 ], [ 26.574445, 40.1403452 ], [ 26.5732436, 40.141787 ], [ 26.5742773, 40.1438545 ], [ 26.5742893, 40.1438867 ], [ 26.5748603, 40.1461707 ], [ 26.5748621, 40.146234 ], [ 26.5748368, 40.1462942 ], [ 26.5747871, 40.1463447 ], [ 26.5729472, 40.147677 ], [ 26.572877, 40.1477127 ], [ 26.5727952, 40.1477283 ], [ 26.5727113, 40.1477219 ], [ 26.5708082, 40.1473183 ], [ 26.5705143, 40.1477382 ], [ 26.5710379, 40.1486689 ], [ 26.5710577, 40.1487323 ], [ 26.5710484, 40.1487971 ], [ 26.5710111, 40.1488556 ], [ 26.5709503, 40.1489011 ], [ 26.570873, 40.1489281 ], [ 26.5696358, 40.1491755 ], [ 26.5688339, 40.1495264 ], [ 26.569075, 40.1500085 ], [ 26.5690878, 40.1500441 ], [ 26.5695319, 40.1520108 ], [ 26.569532, 40.1520752 ], [ 26.5695041, 40.1521359 ], [ 26.5684921, 40.1535274 ], [ 26.5673529, 40.1552995 ], [ 26.5673099, 40.1553467 ], [ 26.5672505, 40.1553818 ], [ 26.5671801, 40.1554016 ], [ 26.5671052, 40.1554044 ], [ 26.5655191, 40.1552775 ], [ 26.5654488, 40.1552637 ], [ 26.5653867, 40.1552348 ], [ 26.5639909, 40.1543466 ], [ 26.5639404, 40.1543027 ], [ 26.563306, 40.1535414 ], [ 26.5623543, 40.1523994 ], [ 26.5623208, 40.1523367 ], [ 26.5620076, 40.1512092 ], [ 26.5617393, 40.1506727 ], [ 26.5604694, 40.1512547 ], [ 26.560416, 40.151273 ], [ 26.5603585, 40.1512812 ], [ 26.5590897, 40.1513447 ], [ 26.5590118, 40.1513391 ], [ 26.55894, 40.1513151 ], [ 26.5588816, 40.1512751 ], [ 26.5588424, 40.1512231 ], [ 26.5584617, 40.1504618 ], [ 26.5584455, 40.1503861 ], [ 26.558509, 40.1491807 ], [ 26.5585296, 40.149112 ], [ 26.5589654, 40.1483494 ], [ 26.5583137, 40.1478982 ], [ 26.5571552, 40.1476224 ], [ 26.555734, 40.1484514 ], [ 26.5556633, 40.1484802 ], [ 26.5555842, 40.1484901 ], [ 26.5550767, 40.1484901 ], [ 26.5549748, 40.1484733 ], [ 26.5533253, 40.1479023 ], [ 26.5532648, 40.1478726 ], [ 26.5519324, 40.1469844 ], [ 26.5518949, 40.146953 ], [ 26.5506927, 40.1456907 ], [ 26.5488385, 40.1455711 ], [ 26.5487608, 40.1455561 ], [ 26.5486934, 40.1455228 ], [ 26.5478686, 40.1449518 ], [ 26.5478184, 40.1449035 ], [ 26.547791, 40.1448454 ], [ 26.5477894, 40.1447836 ], [ 26.5478137, 40.1447247 ], [ 26.5478614, 40.1446749 ], [ 26.5487722, 40.1439918 ], [ 26.5485064, 40.1432474 ], [ 26.5476477, 40.1423887 ], [ 26.5476411, 40.1423817 ], [ 26.5470302, 40.1417097 ], [ 26.5461725, 40.1412273 ], [ 26.5454385, 40.1415209 ], [ 26.5447748, 40.142788 ], [ 26.5447387, 40.1428356 ], [ 26.5446863, 40.1428732 ], [ 26.5446221, 40.1428977 ], [ 26.5445514, 40.1429071 ], [ 26.5444802, 40.1429005 ], [ 26.5429576, 40.1425833 ], [ 26.5428856, 40.1425582 ], [ 26.5428276, 40.1425171 ], [ 26.5427894, 40.142464 ], [ 26.5423453, 40.1415123 ], [ 26.5423308, 40.1414483 ], [ 26.5423308, 40.1408773 ], [ 26.5423332, 40.140851 ], [ 26.54246, 40.1401531 ], [ 26.5424827, 40.1400961 ], [ 26.5425273, 40.1400473 ], [ 26.5425894, 40.1400115 ], [ 26.5426629, 40.1399922 ], [ 26.5435446, 40.1398746 ], [ 26.5444538, 40.1392496 ], [ 26.544577, 40.1389209 ], [ 26.5438921, 40.1385296 ], [ 26.5427687, 40.1385296 ], [ 26.541246, 40.1385296 ], [ 26.5411955, 40.1385256 ], [ 26.5396094, 40.1382718 ], [ 26.539545, 40.1382541 ], [ 26.5394894, 40.1382235 ], [ 26.5394468, 40.1381824 ], [ 26.5388713, 40.1374342 ], [ 26.5369753, 40.1371972 ], [ 26.5352189, 40.1371972 ], [ 26.5351121, 40.1371786 ], [ 26.532039, 40.1360498 ], [ 26.530175, 40.1358633 ], [ 26.5301739, 40.1358632 ], [ 26.528334, 40.1356729 ], [ 26.5283247, 40.1356718 ], [ 26.5264214, 40.135418 ], [ 26.5263482, 40.1353989 ], [ 26.5262863, 40.1353633 ], [ 26.5262418, 40.1353148 ], [ 26.5262188, 40.1352582 ], [ 26.5262198, 40.1351988 ], [ 26.5262446, 40.1351426 ], [ 26.5262907, 40.135095 ], [ 26.5263537, 40.1350606 ], [ 26.5276501, 40.1345668 ], [ 26.5287871, 40.1337005 ], [ 26.528104, 40.133115 ], [ 26.5264626, 40.1327632 ], [ 26.5246884, 40.1331303 ], [ 26.5246058, 40.1331364 ], [ 26.5245253, 40.1331212 ], [ 26.5233545, 40.1327309 ], [ 26.5223317, 40.1335832 ], [ 26.5222388, 40.1336317 ], [ 26.5205258, 40.1341392 ], [ 26.5204572, 40.1341513 ], [ 26.520387, 40.1341481 ], [ 26.5203207, 40.1341298 ], [ 26.5202639, 40.134098 ], [ 26.520221, 40.1340552 ], [ 26.5188689, 40.1322114 ], [ 26.5172388, 40.1317284 ], [ 26.51716, 40.1316907 ], [ 26.5171048, 40.1316333 ], [ 26.5161532, 40.1301107 ], [ 26.5161393, 40.1300832 ], [ 26.5155683, 40.128624 ], [ 26.5155623, 40.1286051 ], [ 26.5153761, 40.1278603 ], [ 26.5148893, 40.1268867 ], [ 26.5141105, 40.126108 ], [ 26.5128109, 40.1254272 ], [ 26.5127808, 40.1254086 ], [ 26.5116388, 40.1245839 ], [ 26.5116224, 40.1245708 ], [ 26.5111336, 40.1241431 ], [ 26.5099252, 40.1234785 ], [ 26.5087008, 40.1232336 ], [ 26.5086177, 40.1232035 ], [ 26.5085547, 40.1231521 ], [ 26.5079214, 40.1223923 ], [ 26.5070979, 40.121442 ], [ 26.5070617, 40.1213757 ], [ 26.5067159, 40.1201076 ], [ 26.506, 40.1200181 ], [ 26.5049483, 40.1208945 ], [ 26.5048742, 40.1209368 ], [ 26.5047852, 40.1209552 ], [ 26.5026281, 40.1210821 ], [ 26.5025379, 40.1210746 ], [ 26.5009984, 40.1207194 ], [ 26.5002065, 40.1211153 ], [ 26.5001287, 40.121141 ], [ 26.5000442, 40.121145 ], [ 26.4999628, 40.1211269 ], [ 26.4989746, 40.1207563 ], [ 26.4971006, 40.1204439 ], [ 26.4970183, 40.1204176 ], [ 26.4969536, 40.1203707 ], [ 26.4956612, 40.1190196 ], [ 26.4950802, 40.1191537 ], [ 26.4943041, 40.1199299 ], [ 26.4942497, 40.1199698 ], [ 26.4941822, 40.1199954 ], [ 26.4941078, 40.1200042 ], [ 26.4936637, 40.1200042 ], [ 26.4935874, 40.1199949 ], [ 26.4935186, 40.1199681 ], [ 26.4934639, 40.1199263 ], [ 26.4934286, 40.1198735 ], [ 26.4932638, 40.1194891 ], [ 26.491933, 40.1187682 ], [ 26.4909892, 40.1191568 ], [ 26.4909175, 40.1191762 ], [ 26.4908416, 40.1191779 ], [ 26.4907685, 40.1191619 ], [ 26.4907053, 40.1191297 ], [ 26.4906577, 40.1190842 ], [ 26.4903379, 40.1186578 ], [ 26.4879921, 40.1184172 ], [ 26.4856525, 40.1182907 ], [ 26.4855438, 40.1182647 ], [ 26.4849005, 40.1179723 ], [ 26.4824262, 40.1179104 ], [ 26.482406, 40.1179093 ], [ 26.4804241, 40.1177344 ], [ 26.4801981, 40.1180959 ], [ 26.4799502, 40.1192117 ], [ 26.4799254, 40.119268 ], [ 26.4798792, 40.1193156 ], [ 26.479816, 40.11935 ], [ 26.4797421, 40.1193677 ], [ 26.4796647, 40.119367 ], [ 26.4782055, 40.1191767 ], [ 26.4781782, 40.1191719 ], [ 26.4770362, 40.1189181 ], [ 26.4770065, 40.1189099 ], [ 26.4758092, 40.1185108 ], [ 26.4746563, 40.1192025 ], [ 26.4745814, 40.1192333 ], [ 26.4744975, 40.1192428 ], [ 26.4744143, 40.1192299 ], [ 26.4743416, 40.1191963 ], [ 26.4731996, 40.118435 ], [ 26.4731447, 40.1183826 ], [ 26.473117, 40.1183188 ], [ 26.4731199, 40.1182516 ], [ 26.4735288, 40.1167913 ], [ 26.4718057, 40.115902 ], [ 26.470338, 40.116313 ], [ 26.4702728, 40.1163239 ], [ 26.4702063, 40.116321 ], [ 26.4685219, 40.1160715 ], [ 26.4666476, 40.1161339 ], [ 26.4665554, 40.1161235 ], [ 26.4664747, 40.1160876 ], [ 26.4655882, 40.1154966 ], [ 26.4637712, 40.1154361 ], [ 26.4637029, 40.1154263 ], [ 26.4636408, 40.1154023 ], [ 26.4626891, 40.1148947 ], [ 26.4626356, 40.114856 ], [ 26.4625993, 40.1148068 ], [ 26.4621987, 40.1140056 ], [ 26.4614902, 40.1138421 ], [ 26.4613919, 40.1137986 ], [ 26.4602499, 40.1129738 ], [ 26.4602232, 40.1129511 ], [ 26.4597157, 40.1124436 ], [ 26.4597114, 40.1124392 ], [ 26.4587851, 40.111455 ], [ 26.4573918, 40.1116222 ], [ 26.4562243, 40.1121138 ], [ 26.4561449, 40.1121348 ], [ 26.4560609, 40.1121341 ], [ 26.455982, 40.1121119 ], [ 26.4559173, 40.1120707 ], [ 26.4558743, 40.1120153 ], [ 26.455454, 40.1111747 ], [ 26.4536994, 40.1100856 ], [ 26.4527886, 40.1098427 ], [ 26.4527326, 40.1098214 ], [ 26.4526854, 40.10979 ], [ 26.4513845, 40.108675 ], [ 26.4498441, 40.1080825 ], [ 26.4486174, 40.1081993 ], [ 26.4471876, 40.1086345 ], [ 26.4471212, 40.1086469 ], [ 26.4470528, 40.1086449 ], [ 26.4469878, 40.1086286 ], [ 26.4454652, 40.1080576 ], [ 26.4454052, 40.1080259 ], [ 26.4453598, 40.1079822 ], [ 26.4453329, 40.1079303 ], [ 26.4453269, 40.1078746 ], [ 26.4453422, 40.10782 ], [ 26.4453775, 40.1077711 ], [ 26.4459924, 40.1071563 ], [ 26.4452611, 40.1066992 ], [ 26.4441193, 40.1069276 ], [ 26.4425389, 40.1073069 ], [ 26.4424639, 40.1073155 ], [ 26.442389, 40.1073063 ], [ 26.4423212, 40.1072801 ], [ 26.442267, 40.1072394 ], [ 26.4422314, 40.107188 ], [ 26.4422177, 40.1071307 ], [ 26.4422273, 40.107073 ], [ 26.4424046, 40.1066001 ], [ 26.4422903, 40.1056856 ], [ 26.4416502, 40.1051619 ], [ 26.4416127, 40.1051219 ], [ 26.4407606, 40.1039045 ], [ 26.4399404, 40.1035765 ], [ 26.4381089, 40.1036986 ], [ 26.4380477, 40.1036968 ], [ 26.437989, 40.1036836 ], [ 26.4372277, 40.1034298 ], [ 26.4372176, 40.1034262 ], [ 26.4357566, 40.1028784 ], [ 26.4348733, 40.1029372 ], [ 26.4348019, 40.102934 ], [ 26.4347347, 40.1029153 ], [ 26.4346773, 40.1028826 ], [ 26.4335988, 40.1020578 ], [ 26.4335593, 40.1020184 ], [ 26.4335344, 40.1019725 ], [ 26.4335259, 40.1019232 ], [ 26.4335259, 40.1015005 ], [ 26.4331212, 40.1015342 ], [ 26.4320396, 40.1023154 ], [ 26.4319931, 40.1023418 ], [ 26.430407, 40.1030397 ], [ 26.4303334, 40.103061 ], [ 26.4302549, 40.1030635 ], [ 26.4288591, 40.1029366 ], [ 26.4288017, 40.1029259 ], [ 26.4287492, 40.1029051 ], [ 26.42729, 40.1021438 ], [ 26.4272247, 40.1020938 ], [ 26.4262096, 40.1009518 ], [ 26.4261804, 40.1009073 ], [ 26.4261672, 40.1008586 ], [ 26.426171, 40.1008088 ], [ 26.4262979, 40.1003013 ], [ 26.426319, 40.100253 ], [ 26.4268664, 40.0994014 ], [ 26.426928, 40.0980465 ], [ 26.4269426, 40.0979886 ], [ 26.4274501, 40.09691 ], [ 26.4274546, 40.0969012 ], [ 26.4278353, 40.0962033 ], [ 26.4278727, 40.0961558 ], [ 26.4279264, 40.0961186 ], [ 26.4279919, 40.0960949 ], [ 26.4280635, 40.0960867 ], [ 26.429142, 40.0960867 ], [ 26.4296699, 40.0960867 ], [ 26.4298916, 40.0956432 ], [ 26.4289497, 40.0954449 ], [ 26.428859, 40.095409 ], [ 26.4278439, 40.0947746 ], [ 26.4278197, 40.0947573 ], [ 26.4272635, 40.0943023 ], [ 26.4265489, 40.0946596 ], [ 26.4264755, 40.0946844 ], [ 26.4263956, 40.0946898 ], [ 26.4241751, 40.0945629 ], [ 26.4241143, 40.0945535 ], [ 26.4240585, 40.0945327 ], [ 26.4224089, 40.0937079 ], [ 26.4223641, 40.0936792 ], [ 26.4214151, 40.0929081 ], [ 26.420369, 40.09285 ], [ 26.4202954, 40.092837 ], [ 26.4202303, 40.0928076 ], [ 26.4201798, 40.0927644 ], [ 26.4201486, 40.0927116 ], [ 26.4201396, 40.092654 ], [ 26.4201537, 40.092597 ], [ 26.4205343, 40.0917722 ], [ 26.4205653, 40.0917262 ], [ 26.4206114, 40.0916884 ], [ 26.421413, 40.0911873 ], [ 26.4203038, 40.0903422 ], [ 26.4191966, 40.0899116 ], [ 26.4191264, 40.0898709 ], [ 26.4179844, 40.0889192 ], [ 26.4179702, 40.0889062 ], [ 26.417082, 40.088018 ], [ 26.4170439, 40.0879634 ], [ 26.4170308, 40.0879023 ], [ 26.4170439, 40.0878411 ], [ 26.417082, 40.0877865 ], [ 26.4176529, 40.0872156 ], [ 26.4174774, 40.0862798 ], [ 26.4174802, 40.0862136 ], [ 26.4175123, 40.0861522 ], [ 26.41757, 40.086103 ], [ 26.4182044, 40.0857223 ], [ 26.4182582, 40.0856978 ], [ 26.4194002, 40.0853171 ], [ 26.419467, 40.085303 ], [ 26.4195363, 40.0853036 ], [ 26.4196026, 40.085319 ], [ 26.4196608, 40.0853479 ], [ 26.4202211, 40.0857215 ], [ 26.421183, 40.0862277 ], [ 26.4214121, 40.085884 ], [ 26.4214674, 40.0852205 ], [ 26.4208718, 40.0844461 ], [ 26.4208424, 40.0843874 ], [ 26.4208395, 40.0843246 ], [ 26.4208635, 40.0842645 ], [ 26.4209117, 40.0842137 ], [ 26.4209789, 40.0841777 ], [ 26.4210576, 40.0841606 ], [ 26.4211394, 40.0841641 ], [ 26.4223748, 40.084379 ], [ 26.4225612, 40.083913 ], [ 26.4225741, 40.0838876 ], [ 26.4230816, 40.0830628 ], [ 26.4231274, 40.083012 ], [ 26.4231919, 40.0829751 ], [ 26.4232685, 40.0829561 ], [ 26.4243874, 40.082827 ], [ 26.424037, 40.0825935 ], [ 26.4229835, 40.0819738 ], [ 26.4219899, 40.0815952 ], [ 26.421965, 40.081769 ], [ 26.4219286, 40.0818494 ], [ 26.4213576, 40.0825472 ], [ 26.4213117, 40.0825887 ], [ 26.4212524, 40.0826185 ], [ 26.4211845, 40.0826341 ], [ 26.4211136, 40.0826343 ], [ 26.4210456, 40.082619 ], [ 26.4197768, 40.0821749 ], [ 26.4197175, 40.0821457 ], [ 26.4196713, 40.0821048 ], [ 26.419642, 40.0820556 ], [ 26.419632, 40.082002 ], [ 26.419632, 40.0816848 ], [ 26.419632, 40.0811773 ], [ 26.4196451, 40.0811162 ], [ 26.4196832, 40.0810615 ], [ 26.4203626, 40.0803821 ], [ 26.4200676, 40.0797429 ], [ 26.4191683, 40.0795181 ], [ 26.4190971, 40.0794898 ], [ 26.4190414, 40.0794455 ], [ 26.4184704, 40.078811 ], [ 26.4184376, 40.0787591 ], [ 26.4184266, 40.0787019 ], [ 26.4184384, 40.0786449 ], [ 26.418472, 40.0785932 ], [ 26.4185243, 40.0785517 ], [ 26.4192856, 40.0781076 ], [ 26.4193594, 40.078078 ], [ 26.4194417, 40.078069 ], [ 26.4195233, 40.0780814 ], [ 26.419595, 40.0781139 ], [ 26.420823, 40.078912 ], [ 26.4221361, 40.0791975 ], [ 26.4229646, 40.0788661 ], [ 26.4237887, 40.0782069 ], [ 26.4235121, 40.077488 ], [ 26.4235022, 40.0774271 ], [ 26.4235179, 40.077367 ], [ 26.4235578, 40.0773139 ], [ 26.4236176, 40.0772733 ], [ 26.4236911, 40.0772495 ], [ 26.4237707, 40.0772448 ], [ 26.4247224, 40.0773083 ], [ 26.4247734, 40.0773159 ], [ 26.425852, 40.0775697 ], [ 26.4259356, 40.077604 ], [ 26.4259964, 40.07766 ], [ 26.4265814, 40.078479 ], [ 26.4275391, 40.0786918 ], [ 26.4281884, 40.0784754 ], [ 26.4289874, 40.0779837 ], [ 26.4290278, 40.0779635 ], [ 26.4302806, 40.0774624 ], [ 26.4308369, 40.0771533 ], [ 26.4309057, 40.0771265 ], [ 26.4309819, 40.0771172 ], [ 26.433012, 40.0771172 ], [ 26.4331052, 40.0771313 ], [ 26.4340755, 40.0774345 ], [ 26.4349788, 40.0774345 ], [ 26.4350274, 40.0774382 ], [ 26.435838, 40.0775629 ], [ 26.4368387, 40.0776254 ], [ 26.436881, 40.0776309 ], [ 26.4378019, 40.0778151 ], [ 26.4387219, 40.0778151 ], [ 26.4388304, 40.0778344 ], [ 26.4398455, 40.078215 ], [ 26.4399259, 40.0782632 ], [ 26.4406238, 40.0788976 ], [ 26.440625, 40.0788987 ], [ 26.4413844, 40.0795996 ], [ 26.4421415, 40.0796537 ], [ 26.4432387, 40.0795318 ], [ 26.4440783, 40.0793519 ], [ 26.4451274, 40.0788582 ], [ 26.4451878, 40.0788377 ], [ 26.4463298, 40.0785839 ], [ 26.44644, 40.0785791 ], [ 26.4478786, 40.0787668 ], [ 26.4485072, 40.0787668 ], [ 26.4494775, 40.0784636 ], [ 26.4495498, 40.0784502 ], [ 26.4496239, 40.078454 ], [ 26.4496933, 40.0784745 ], [ 26.4497516, 40.07851 ], [ 26.4506916, 40.0792841 ], [ 26.4518512, 40.0787318 ], [ 26.4519138, 40.0787106 ], [ 26.4519815, 40.0787033 ], [ 26.4528042, 40.0787033 ], [ 26.4533347, 40.0781199 ], [ 26.453419, 40.0777824 ], [ 26.4528012, 40.0774973 ], [ 26.452045, 40.0774973 ], [ 26.4519738, 40.0774892 ], [ 26.4511491, 40.0772989 ], [ 26.4510783, 40.0772725 ], [ 26.450263, 40.0768335 ], [ 26.449258, 40.0763938 ], [ 26.449212, 40.0763679 ], [ 26.4483238, 40.0757334 ], [ 26.4482806, 40.0756927 ], [ 26.4482537, 40.0756446 ], [ 26.447966, 40.0748392 ], [ 26.4470623, 40.0745003 ], [ 26.4466295, 40.0743766 ], [ 26.4465726, 40.0743535 ], [ 26.4459117, 40.073993 ], [ 26.4453335, 40.0738773 ], [ 26.4442675, 40.0737519 ], [ 26.4441917, 40.073733 ], [ 26.4441276, 40.0736966 ], [ 26.444082, 40.0736463 ], [ 26.4437992, 40.0731938 ], [ 26.4426734, 40.0727198 ], [ 26.4415419, 40.0723427 ], [ 26.4414798, 40.0723129 ], [ 26.4414318, 40.0722705 ], [ 26.441402, 40.0722192 ], [ 26.4413931, 40.0721634 ], [ 26.4414058, 40.0721081 ], [ 26.441439, 40.072058 ], [ 26.4422637, 40.0711698 ], [ 26.442307, 40.071134 ], [ 26.4423608, 40.0711079 ], [ 26.443106, 40.0708417 ], [ 26.443106, 40.0700549 ], [ 26.441804, 40.0699464 ], [ 26.4417162, 40.0699259 ], [ 26.4416441, 40.0698823 ], [ 26.4405759, 40.0689397 ], [ 26.4393822, 40.068123 ], [ 26.4393345, 40.0680787 ], [ 26.4393062, 40.0680255 ], [ 26.438989, 40.0670104 ], [ 26.4389876, 40.0670057 ], [ 26.4386704, 40.0658637 ], [ 26.4386666, 40.0658458 ], [ 26.4384763, 40.0645769 ], [ 26.4384746, 40.0645552 ], [ 26.4384746, 40.0635482 ], [ 26.4383487, 40.0624143 ], [ 26.4383544, 40.0623545 ], [ 26.438384, 40.0622991 ], [ 26.4384347, 40.0622535 ], [ 26.4385013, 40.0622223 ], [ 26.4385772, 40.0622086 ], [ 26.4418498, 40.0620268 ], [ 26.4423629, 40.0610577 ], [ 26.4424028, 40.0610068 ], [ 26.4424612, 40.060968 ], [ 26.4425324, 40.0609448 ], [ 26.4426093, 40.0609397 ] ] ] ] } }
]
}
